FM-6                    
1 39360U 13058A   26204.73181448 -.00000011  00000+0  00000+0 0  9999
2 39360   0.0110  29.6414 0000841 154.7712 264.1406  1.00275985 46449
RADUGA-1M 3             
1 39375U 13062A   26204.86364249  .00000152  00000+0  00000+0 0  9991
2 39375   6.0488  71.8830 0001894 286.4551 289.1425  1.00274073 46471
SES-8                   
1 39460U 13071A   26204.77370462 -.00000264  00000+0  00000+0 0  9995
2 39460   0.0591 257.5836 0002951 221.9532 195.4870  1.00271043 44792
INMARSAT 5-F1           
1 39476U 13073A   26204.76729124  .00000033  00000+0  00000+0 0  9999
2 39476   0.0153  65.5911 0000432  92.9345 121.8317  1.00272023 45940
TKSAT-1 (TUPAC KATARI)  
1 39481U 13075A   26204.80880477  .00000000  00000+0  00000+0 0  9995
2 39481   0.0158  83.8800 0002820  29.6743  31.9694  1.00270510 45974
EXPRESS-AM5             
1 39487U 13077A   26203.28558681 -.00000277  00000+0  00000+0 0  9990
2 39487   0.0239 285.9569 0000348 195.2657  61.6510  1.00271592 46715
GSAT-14                 
1 39498U 14001A   26204.84081174 -.00000072  00000+0  00000+0 0  9994
2 39498   0.0314  92.3072 0002134 109.5019 116.4075  1.00272178 45743
THAICOM 6               
1 39500U 14002A   26204.84167839 -.00000116  00000+0  00000+0 0  9991
2 39500   0.0322 129.6695 0004773 356.0129 197.3870  1.00270109 45825
TDRS 12                 
1 39504U 14004A   26204.81807815 -.00000267  00000+0  00000+0 0  9996
2 39504   4.0137  19.6735 0004402 198.3666 337.1390  1.00270600 44648
ABS-2                   
1 39508U 14006A   26204.84098507 -.00000081  00000+0  00000+0 0  9999
2 39508   0.0124  72.1076 0003557  33.9186 213.2090  1.00272368 45642
ATHENA-FIDUS            
1 39509U 14006B   26204.86364249  .00000159  00000+0  00000+0 0  9996
2 39509   0.0144 125.0110 0001580 358.1909 167.1055  1.00274481 45456
TURKSAT 4A              
1 39522U 14007A   26204.83448505  .00000151  00000+0  00000+0 0  9999
2 39522   0.0755 279.9042 0001141 322.6070  41.4366  1.00271971 45337
EXPRESS-AT1             
1 39612U 14010A   26204.83942507 -.00000015  00000+0  00000+0 0  9994
2 39612   0.3497  85.3693 0004770  54.2749 171.2062  1.00311509 45186
EXPRESS-AT2             
1 39613U 14010B   26204.83725838  .00000084  00000+0  00000+0 0  9996
2 39613   0.0134  12.5676 0000192   8.8912 277.5058  1.00271050 44861
AMAZONAS 4A             
1 39616U 14011A   26204.52634472 -.00000248  00000+0  00000+0 0  9992
2 39616   0.0597 166.2725 0004933 332.8129 277.6528  1.00271608 45072
ASTRA 5B                
1 39617U 14011B   26204.86919735  .00000142  00000+0  00000+0 0  9990
2 39617   0.0607 314.8028 0002262 175.3919 147.7552  1.00273045 45039
IRNSS-1B                
1 39635U 14017A   26203.69637116  .00000145  00000+0  00000+0 0  9999
2 39635  28.8725 239.7926 0021340 191.4522 174.9685  1.00267424 45153
LUCH-5V                 
1 39727U 14023A   26204.85233231 -.00000268  00000+0  00000+0 0  9994
2 39727   5.2213  69.3619 0002416  79.0706 194.7306  1.00271434 44728
KAZSAT-3                
1 39728U 14023B   26204.40993611  .00000065  00000+0  00000+0 0  9995
2 39728   0.0091  14.0260 0000197 172.5456 320.6544  1.00273336 42826
EUTELSAT 3B             
1 39773U 14030A   26204.88030727  .00000025  00000+0  00000+0 0  9991
2 39773   0.0616 351.0819 0004207 129.9587 140.5708  1.00270676 44434
ASIASAT 8 (AMOS-7)      
1 40107U 14046A   26204.84705176 -.00000327  00000+0  00000+0 0  9990
2 40107   0.0600 258.0479 0001903 208.6933 245.0472  1.00267105102514
ASIASAT 6               
1 40141U 14052A   26204.27962921 -.00000357  00000+0  00000+0 0  9998
2 40141   0.0664 264.8434 0001142 237.3074  19.4410  1.00272114 43445
OPTUS 10                
1 40146U 14054A   26204.78575133 -.00000142  00000+0  00000+0 0  9998
2 40146   0.1014  21.0521 0002099  97.3030 262.0326  1.00271479 43397
MEASAT-3B               
1 40147U 14054B   26204.84427840 -.00000236  00000+0  00000+0 0  9991
2 40147   0.0262  27.8831 0002476  56.5580 252.5819  1.00270874 43272
HIMAWARI-8              
1 40267U 14060A   26204.85398513 -.00000271  00000+0  00000+0 0  9995
2 40267   0.0372 272.3317 0001405 244.7357 232.5899  1.00270487 43127
IRNSS-1C                
1 40269U 14061A   26204.62877324 -.00000163  00000+0  00000+0 0  9995
2 40269   6.6072  88.2365 0021856   6.4251 156.0981  1.00270971 43055
INTELSAT 30 (IS-30)     
1 40271U 14062A   26204.51712506 -.00000146  00000+0  00000+0 0  9998
2 40271   0.0173  55.5052 0001759 339.9637 356.8933  1.00271330  7158
ARSAT 1                 
1 40272U 14062B   26204.81192478 -.00000255  00000+0  00000+0 0  9993
2 40272   0.0476 277.1530 0002132 195.3401  49.5325  1.00271573 42998
EUTELSAT 53A            
1 40277U 14064A   26204.83665172  .00000103  00000+0  00000+0 0  9999
2 40277   0.0155  32.1853 0001528 155.7662 107.8129  1.00270209 41939
GSAT-16                 
1 40332U 14078A   26204.83708506  .00000090  00000+0  00000+0 0  9990
2 40332   0.0152  78.1097 0007656  18.7108 201.1681  1.00273170 42470
DIRECTV 14              
1 40333U 14078B   26204.35376696 -.00000121  00000+0  00000+0 0  9995
2 40333   0.0097  46.3610 0000642 353.0609 289.7825  1.00272581 42406
YAMAL 401               
1 40345U 14082A   26204.84401841 -.00000223  00000+0  00000+0 0  9991
2 40345   0.0278 196.8993 0000876 245.3285 253.1314  1.00272794 42287
