OBJECT_NAME,OBJECT_ID,EPOCH,MEAN_MOTION,ECCENTRICITY,INCLINATION,RA_OF_ASC_NODE,ARG_OF_PERICENTER,MEAN_ANOMALY,EPHEMERIS_TYPE,CLASSIFICATION_TYPE,NORAD_CAT_ID,ELEMENT_SET_NO,REV_AT_EPOCH,BSTAR,MEAN_MOTION_DOT,MEAN_MOTION_DDOT
FM-6,2013-058A,2026-07-23T17:33:48.771072,1.00275985,.0000841,0.0110,29.6414,154.7712,264.1406,0,U,39360,999,4644,0,-.11E-6,0
RADUGA-1M 3,2013-062A,2026-07-23T20:43:38.711136,1.00274073,.0001894,6.0488,71.8830,286.4551,289.1425,0,U,39375,999,4647,0,.152E-5,0
SES-8,2013-071A,2026-07-23T18:34:08.079168,1.00271043,.0002951,0.0591,257.5836,221.9532,195.4870,0,U,39460,999,4479,0,-.264E-5,0
INMARSAT 5-F1,2013-073A,2026-07-23T18:24:53.963136,1.00272023,.0000432,0.0153,65.5911,92.9345,121.8317,0,U,39476,999,4594,0,.33E-6,0
TKSAT-1 (TUPAC KATARI),2013-075A,2026-07-23T19:24:40.732128,1.00270510,.000282,0.0158,83.8800,29.6743,31.9694,0,U,39481,999,4597,0,0,0
EXPRESS-AM5,2013-077A,2026-07-22T06:51:14.700384,1.00271592,.00003488,0.0239,285.9569,195.2657,61.6510,0,U,39487,999,4671,0,-.277E-5,0
GSAT-14,2014-001A,2026-07-23T20:10:46.134336,1.00272178,.0002134,0.0314,92.3072,109.5019,116.4075,0,U,39498,999,4574,0,-.72E-6,0
THAICOM 6,2014-002A,2026-07-23T20:12:01.012896,1.00270109,.0004773,0.0322,129.6695,356.0129,197.3870,0,U,39500,999,4582,0,-.116E-5,0
TDRS 12,2014-004A,2026-07-23T19:38:01.952160,1.00270600,.0004402,4.0137,19.6735,198.3666,337.1390,0,U,39504,999,4464,0,-.267E-5,0
ABS-2,2014-006A,2026-07-23T20:11:01.110048,1.00272368,.0003557,0.0124,72.1076,33.9186,213.2090,0,U,39508,999,4564,0,-.81E-6,0
ATHENA-FIDUS,2014-006B,2026-07-23T20:43:38.711136,1.00274481,.000158,0.0144,125.0110,358.1909,167.1055,0,U,39509,999,4545,0,.159E-5,0
TURKSAT 4A,2014-007A,2026-07-23T20:01:39.508320,1.00271971,.0001141,0.0755,279.9042,322.6070,41.4366,0,U,39522,999,4533,0,.151E-5,0
EXPRESS-AT1,2014-010A,2026-07-23T20:08:46.326048,1.00311509,.000477,0.3497,85.3693,54.2749,171.2062,0,U,39612,999,4518,0,-.15E-6,0
EXPRESS-AT2,2014-010B,2026-07-23T20:05:39.124032,1.00271050,.0000192,0.0134,12.5676,8.8912,277.5058,0,U,39613,999,4486,0,.84E-6,0
AMAZONAS 4A,2014-011A,2026-07-23T12:37:56.183808,1.00271608,.0004933,0.0597,166.2725,332.8129,277.6528,0,U,39616,999,4507,0,-.248E-5,0
ASTRA 5B,2014-011B,2026-07-23T20:51:38.651040,1.00273045,.0002262,0.0607,314.8028,175.3919,147.7552,0,U,39617,999,4503,0,.142E-5,0
IRNSS-1B,2014-017A,2026-07-22T16:42:46.468224,1.00267424,.00213406,28.8725,239.7926,191.4522,174.9685,0,U,39635,999,4515,0,.145E-5,0
LUCH-5V,2014-023A,2026-07-23T20:27:21.511584,1.00271434,.0002416,5.2213,69.3619,79.0706,194.7306,0,U,39727,999,4472,0,-.268E-5,0
KAZSAT-3,2014-023B,2026-07-23T09:50:18.479904,1.00273336,.0000197,0.0091,14.0260,172.5456,320.6544,0,U,39728,999,4282,0,.65E-6,0
EUTELSAT 3B,2014-030A,2026-07-23T21:07:38.548128,1.00270676,.0004207,0.0616,351.0819,129.9587,140.5708,0,U,39773,999,4443,0,.25E-6,0
ASIASAT 8 (AMOS-7),2014-046A,2026-07-23T20:19:45.272064,1.00267105,.0001903,0.0600,258.0479,208.6933,245.0472,0,U,40107,999,10251,0,-.327E-5,0
ASIASAT 6,2014-052A,2026-07-23T06:42:39.963744,1.00272114,.0001142,0.0664,264.8434,237.3074,19.4410,0,U,40141,999,4344,0,-.357E-5,0
OPTUS 10,2014-054A,2026-07-23T18:51:28.914912,1.00271479,.0002099,0.1014,21.0521,97.3030,262.0326,0,U,40146,999,4339,0,-.142E-5,0
MEASAT-3B,2014-054B,2026-07-23T20:15:45.653760,1.00270874,.0002476,0.0262,27.8831,56.5580,252.5819,0,U,40147,999,4327,0,-.236E-5,0
HIMAWARI-8,2014-060A,2026-07-23T20:29:44.315232,1.00270487,.0001405,0.0372,272.3317,244.7357,232.5899,0,U,40267,999,4312,0,-.271E-5,0
IRNSS-1C,2014-061A,2026-07-23T15:05:26.007936,1.00270971,.0021856,6.6072,88.2365,6.4251,156.0981,0,U,40269,999,4305,0,-.163E-5,0
INTELSAT 30 (IS-30),2014-062A,2026-07-23T12:24:39.605184,1.00271330,.0001759,0.0173,55.5052,339.9637,356.8933,0,U,40271,999,715,0,-.146E-5,0
ARSAT 1,2014-062B,2026-07-23T19:29:10.300992,1.00271573,.0002132,0.0476,277.1530,195.3401,49.5325,0,U,40272,999,4299,0,-.255E-5,0
EUTELSAT 53A,2014-064A,2026-07-23T20:04:46.708608,1.00270209,.0001528,0.0155,32.1853,155.7662,107.8129,0,U,40277,999,4193,0,.103E-5,0
GSAT-16,2014-078A,2026-07-23T20:05:24.149184,1.00273170,.0007656,0.0152,78.1097,18.7108,201.1681,0,U,40332,999,4247,0,.9E-6,0
DIRECTV 14,2014-078B,2026-07-23T08:29:25.465344,1.00272581,.0000642,0.0097,46.3610,353.0609,289.7825,0,U,40333,999,4240,0,-.121E-5,0
YAMAL 401,2014-082A,2026-07-23T20:15:23.190624,1.00272794,.0000876,0.0278,196.8993,245.3285,253.1314,0,U,40345,999,4228,0,-.223E-5,0
